OBJECT_NAME,OBJECT_ID,EPOCH,MEAN_MOTION,ECCENTRICITY,INCLINATION,RA_OF_ASC_NODE,ARG_OF_PERICENTER,MEAN_ANOMALY,EPHEMERIS_TYPE,CLASSIFICATION_TYPE,NORAD_CAT_ID,ELEMENT_SET_NO,REV_AT_EPOCH,BSTAR,MEAN_MOTION_DOT,MEAN_MOTION_DDOT
BEIDOU-2 IGSO-5 (C10),2011-073A,2026-07-02T17:30:18.330912,1.00270596,.01145273,47.6496,271.3544,222.0502,141.5350,0,U,37948,999,5329,0,-.128E-5,0
LUCH 5A (SDCM/PRN 140),2011-074B,2026-07-13T07:58:53.725728,1.00272864,.00025638,8.8178,73.4223,60.6409,83.8497,0,U,37951,999,5331,0,-.6E-6,0
BEIDOU-2 G5 (C05),2012-008A,2026-07-13T03:28:39.412704,1.00269601,.00073296,3.6351,69.5276,269.0592,63.2758,0,U,38091,999,5262,0,.52E-6,0
BEIDOU-2 M3 (C11),2012-018A,2026-07-11T21:19:49.397952,1.86229849,.00209982,55.7352,304.0434,272.3381,87.4376,0,U,38250,999,9640,0,-.7E-6,0
BEIDOU-2 M4 (C12),2012-018B,2026-07-10T05:02:43.446048,1.86229687,.0012086,55.6367,303.3120,272.7348,87.1429,0,U,38251,999,9637,0,-.69E-6,0
SES-5 (EGNOS/PRN 136),2012-036A,2026-07-12T09:10:38.808768,1.00270430,.00018809,0.0464,319.3864,153.8533,319.6709,0,U,38652,999,4471,0,.35E-6,0
BEIDOU-2 M6 (C14),2012-050B,2026-07-12T01:37:29.173728,1.86230837,.0012991,56.5659,62.0719,1.2646,358.8073,0,U,38775,999,9377,0,-.42E-6,0
GSAT-10 (GAGAN/PRN 128),2012-051B,2026-07-13T03:35:31.254720,1.00271396,.00073701,0.0974,265.2051,188.0823,334.5972,0,U,38779,999,5035,0,-.166E-5,0
GPS BIIF-3  (PRN 24),2012-053A,2026-07-13T05:47:54.813696,2.00567855,.01818861,53.5894,142.5319,66.1866,295.6647,0,U,38833,999,9996,0,.2E-7,0
GSAT0103 (GALILEO-FM3),2012-055A,2026-07-12T16:46:28.072992,1.70473314,.00038475,55.8211,100.8454,310.2580,49.7209,0,U,38857,999,8544,0,-.3E-6,0
BEIDOU-2 G6 (C02),2012-059A,2026-07-13T01:53:10.819680,1.00274143,.0008826,4.4833,73.2399,327.2041,2.7777,0,U,38953,999,5016,0,-.181E-5,0
LUCH 5B (SDCM/PRN 125),2012-061A,2026-07-12T22:03:38.606112,1.00270627,.00038331,10.5358,49.6194,145.7513,50.0812,0,U,38977,999,4986,0,-.146E-5,0
COSMOS 2485 (747),2013-019A,2026-07-09T21:41:21.416640,2.13103398,.0022762,65.4318,72.8427,231.6212,128.2346,0,U,39155,999,10276,0,-.24E-6,0
GPS BIIF-4  (PRN 27),2013-023A,2026-07-13T02:37:24.159360,2.00563293,.01413919,54.4844,267.9166,51.1125,310.2162,0,U,39166,999,9640,0,.9E-7,0
IRNSS-1A,2013-034A,2026-07-10T17:17:25.712736,1.00281941,.0017567,35.7704,63.5328,183.4462,356.2994,0,U,39199,999,4760,0,.47E-6,0
GPS BIIF-5  (PRN 30),2014-008A,2026-07-13T02:39:59.758848,2.00561395,.00841227,53.6575,148.2624,231.5408,127.6610,0,U,39533,999,9020,0,.1E-6,0
ASTRA 5B (EGNOS/PRN 123),2014-011B,2026-07-13T06:43:55.922304,1.00273240,.00019783,0.0811,299.6693,189.8730,286.1103,0,U,39617,999,4492,0,.134E-5,0
COSMOS 2492 (754),2014-012A,2026-07-12T16:16:30.383616,2.13103263,.00103115,65.2814,313.0702,318.4187,41.5081,0,U,39620,999,9578,0,-.63E-6,0
IRNSS-1B,2014-017A,2026-07-12T17:11:35.649312,1.00275003,.00223228,28.8793,239.9624,191.7120,171.9393,0,U,39635,999,4505,0,.145E-5,0
LUCH 5V (SDCM/PRN 141),2014-023A,2026-07-13T02:57:21.816288,1.00274471,.00020708,5.1933,69.4674,81.9291,278.6501,0,U,39727,999,4462,0,-.276E-5,0
GPS BIIF-6  (PRN 06),2014-026A,2026-07-12T21:19:28.722432,2.00559010,.00381302,56.4845,330.5174,325.8424,33.9072,0,U,39741,999,8905,0,-.89E-6,0
COSMOS 2500 (755),2014-032A,2026-07-13T07:36:12.955104,2.13105900,.00081795,65.2160,312.7937,189.8219,170.1691,0,U,40001,999,9401,0,-.62E-6,0
GPS BIIF-7  (PRN 09),2014-045A,2026-07-11T11:37:40.026720,2.00559992,.00342538,55.3686,87.4969,118.3351,242.0458,0,U,40105,999,8656,0,-.38E-6,0
GSAT0201 (GALILEO 5),2014-050A,2026-07-12T17:58:54.893280,1.85519397,.16782926,48.8466,272.3871,180.4210,179.4845,0,U,40128,999,7879,0,-.15E-6,0
GSAT0202 (GALILEO 6),2014-050B,2026-07-11T09:18:20.936448,1.85520566,.16791779,48.8660,271.5287,181.0429,178.6225,0,U,40129,999,8093,0,-.14E-6,0
IRNSS-1C,2014-061A,2026-07-12T21:07:20.292672,1.00272709,.00221221,6.5810,88.4431,5.2065,236.9875,0,U,40269,999,4294,0,-.17E-5,0
GPS BIIF-8  (PRN 03),2014-068A,2026-07-11T20:25:46.278048,2.00552830,.00673643,57.0043,30.0052,72.1584,288.6313,0,U,40294,999,8570,0,-.51E-6,0
COSMOS 2501 (702K),2014-075A,2026-07-12T04:06:50.105664,2.13101266,.00226861,63.6181,189.5071,212.6526,147.2271,0,U,40315,999,9038,0,.94E-6,0
GPS BIIF-9  (PRN 26),2015-013A,2026-07-12T23:45:34.363584,2.00549767,.01102708,53.1662,203.1104,40.3597,320.4905,0,U,40534,999,8234,0,.79E-6,0
GSAT0203 (GALILEO 7),2015-017A,2026-07-10T02:08:55.601088,1.70476121,.00025033,56.7788,340.9723,258.1316,101.8369,0,U,40544,999,6959,0,-.8E-6,0
GSAT0204 (GALILEO 8),2015-017B,2026-07-10T08:17:21.294240,1.70475622,.00026381,56.7851,340.9839,235.0424,124.9287,0,U,40545,999,3264,0,-.81E-6,0
